ONEWEB-0012             
1 44057U 19010A   24136.92767117 -.00000007  00000+0 -51606-4 0  9997
2 44057  87.9139  20.5388 0001878 109.3930 250.7404 13.16594247251264
ONEWEB-0010             
1 44058U 19010B   24136.95300226  .00000014  00000+0  31169-5 0  9994
2 44058  87.9139  20.5128 0002335  91.9372 268.2026 13.16593690251313
ONEWEB-0008             
1 44059U 19010C   24136.90233897  .00000102  00000+0  23274-3 0  9993
2 44059  87.9138  20.5244 0001642  72.9262 287.2049 13.16593974251422
ONEWEB-0007             
1 44060U 19010D   24136.78826102 -.00000094  00000+0 -28299-3 0  9992
2 44060  87.9065  50.9185 0001887  93.1228 267.0118 13.15548580251135
ONEWEB-0006             
1 44061U 19010E   24136.79221882 -.00000040  00000+0 -14069-3 0  9999
2 44061  87.9053  50.9040 0002035  89.3502 270.7862 13.15549777251182
ONEWEB-0011             
1 44062U 19010F   24136.76211045  .00000095  00000+0  21919-3 0  9997
2 44062  87.9056  50.9099 0002140  80.3945 279.7427 13.15548426251174
ONEWEB-0013             
1 45131U 20008A   24136.72136614  .00000749  00000+0  21391-2 0  9997
2 45131  87.8657 206.1309 0001496 125.3897 234.7369 13.09376064206284
ONEWEB-0017             
1 45132U 20008B   24136.87551656 -.00000285  00000+0 -85342-3 0  9995
2 45132  87.8969 187.8059 0002356  97.8094 262.3301 13.10375594208112
