<?xml version="1.0" encoding="UTF-8"?>
<ndm xmlns:xsi="http://www.w3.org/2001/XMLSchema-instance" xsi:noNamespaceSchemaLocation="https://sanaregistry.org/r/ndmxml_unqualified/ndmxml-2.0.0-master-2.0.xsd">
<omm id="CCSDS_OMM_VERS" version="2.0">
<header><CREATION_DATE/><ORIGINATOR/></header><body><segment><metadata><OBJECT_NAME>ONEWEB-0012</OBJECT_NAME><OBJECT_ID>2019-010A</OBJECT_ID><CENTER_NAME>EARTH</CENTER_NAME><REF_FRAME>TEME</REF_FRAME><TIME_SYSTEM>UTC</TIME_SYSTEM><MEAN_ELEMENT_THEORY>SGP4</MEAN_ELEMENT_THEORY></metadata><data><meanElements><EPOCH>2024-05-15T22:15:50.789088</EPOCH><MEAN_MOTION>13.16594247</MEAN_MOTION><ECCENTRICITY>.0001878</ECCENTRICITY><INCLINATION>87.9139</INCLINATION><RA_OF_ASC_NODE>20.5388</RA_OF_ASC_NODE><ARG_OF_PERICENTER>109.3930</ARG_OF_PERICENTER><MEAN_ANOMALY>250.7404</MEAN_ANOMALY></meanElements><tleParameters><EPHEMERIS_TYPE>0</EPHEMERIS_TYPE><CLASSIFICATION_TYPE>U</CLASSIFICATION_TYPE><NORAD_CAT_ID>44057</NORAD_CAT_ID><ELEMENT_SET_NO>999</ELEMENT_SET_NO><REV_AT_EPOCH>25126</REV_AT_EPOCH><BSTAR>-.51606E-4</BSTAR><MEAN_MOTION_DOT>-.7E-7</MEAN_MOTION_DOT><MEAN_MOTION_DDOT>0</MEAN_MOTION_DDOT></tleParameters></data></segment></body></omm>
<omm id="CCSDS_OMM_VERS" version="2.0">
<header><CREATION_DATE/><ORIGINATOR/></header><body><segment><metadata><OBJECT_NAME>ONEWEB-0010</OBJECT_NAME><OBJECT_ID>2019-010B</OBJECT_ID><CENTER_NAME>EARTH</CENTER_NAME><REF_FRAME>TEME</REF_FRAME><TIME_SYSTEM>UTC</TIME_SYSTEM><MEAN_ELEMENT_THEORY>SGP4</MEAN_ELEMENT_THEORY></metadata><data><meanElements><EPOCH>2024-05-15T22:52:19.395264</EPOCH><MEAN_MOTION>13.16593690</MEAN_MOTION><ECCENTRICITY>.0002335</ECCENTRICITY><INCLINATION>87.9139</INCLINATION><RA_OF_ASC_NODE>20.5128</RA_OF_ASC_NODE><ARG_OF_PERICENTER>91.9372</ARG_OF_PERICENTER><MEAN_ANOMALY>268.2026</MEAN_ANOMALY></meanElements><tleParameters><EPHEMERIS_TYPE>0</EPHEMERIS_TYPE><CLASSIFICATION_TYPE>U</CLASSIFICATION_TYPE><NORAD_CAT_ID>44058</NORAD_CAT_ID><ELEMENT_SET_NO>999</ELEMENT_SET_NO><REV_AT_EPOCH>25131</REV_AT_EPOCH><BSTAR>.31169E-5</BSTAR><MEAN_MOTION_DOT>.14E-6</MEAN_MOTION_DOT><MEAN_MOTION_DDOT>0</MEAN_MOTION_DDOT></tleParameters></data></segment></body></omm>
<omm id="CCSDS_OMM_VERS" version="2.0">
<header><CREATION_DATE/><ORIGINATOR/></header><body><segment><metadata><OBJECT_NAME>ONEWEB-0008</OBJECT_NAME><OBJECT_ID>2019-010C</OBJECT_ID><CENTER_NAME>EARTH</CENTER_NAME><REF_FRAME>TEME</REF_FRAME><TIME_SYSTEM>UTC</TIME_SYSTEM><MEAN_ELEMENT_THEORY>SGP4</MEAN_ELEMENT_THEORY></metadata><data><meanElements><EPOCH>2024-05-15T21:39:22.087008</EPOCH><MEAN_MOTION>13.16593974</MEAN_MOTION><ECCENTRICITY>.0001642</ECCENTRICITY><INCLINATION>87.9138</INCLINATION><RA_OF_ASC_NODE>20.5244</RA_OF_ASC_NODE><ARG_OF_PERICENTER>72.9262</ARG_OF_PERICENTER><MEAN_ANOMALY>287.2049</MEAN_ANOMALY></meanElements><tleParameters><EPHEMERIS_TYPE>0</EPHEMERIS_TYPE><CLASSIFICATION_TYPE>U</CLASSIFICATION_TYPE><NORAD_CAT_ID>44059</NORAD_CAT_ID><ELEMENT_SET_NO>999</ELEMENT_SET_NO><REV_AT_EPOCH>25142</REV_AT_EPOCH><BSTAR>.23274E-3</BSTAR><MEAN_MOTION_DOT>.102E-5</MEAN_MOTION_DOT><MEAN_MOTION_DDOT>0</MEAN_MOTION_DDOT></tleParameters></data></segment></body></omm>
<omm id="CCSDS_OMM_VERS" version="2.0">
<header><CREATION_DATE/><ORIGINATOR/></header><body><segment><metadata><OBJECT_NAME>ONEWEB-0007</OBJECT_NAME><OBJECT_ID>2019-010D</OBJECT_ID><CENTER_NAME>EARTH</CENTER_NAME><REF_FRAME>TEME</REF_FRAME><TIME_SYSTEM>UTC</TIME_SYSTEM><MEAN_ELEMENT_THEORY>SGP4</MEAN_ELEMENT_THEORY></metadata><data><meanElements><EPOCH>2024-05-15T18:55:05.752128</EPOCH><MEAN_MOTION>13.15548580</MEAN_MOTION><ECCENTRICITY>.0001887</ECCENTRICITY><INCLINATION>87.9065</INCLINATION><RA_OF_ASC_NODE>50.9185</RA_OF_ASC_NODE><ARG_OF_PERICENTER>93.1228</ARG_OF_PERICENTER><MEAN_ANOMALY>267.0118</MEAN_ANOMALY></meanElements><tleParameters><EPHEMERIS_TYPE>0</EPHEMERIS_TYPE><CLASSIFICATION_TYPE>U</CLASSIFICATION_TYPE><NORAD_CAT_ID>44060</NORAD_CAT_ID><ELEMENT_SET_NO>999</ELEMENT_SET_NO><REV_AT_EPOCH>25113</REV_AT_EPOCH><BSTAR>-.28299E-3</BSTAR><MEAN_MOTION_DOT>-.94E-6</MEAN_MOTION_DOT><MEAN_MOTION_DDOT>0</MEAN_MOTION_DDOT></tleParameters></data></segment></body></omm>
<omm id="CCSDS_OMM_VERS" version="2.0">
<header><CREATION_DATE/><ORIGINATOR/></header><body><segment><metadata><OBJECT_NAME>ONEWEB-0006</OBJECT_NAME><OBJECT_ID>2019-010E</OBJECT_ID><CENTER_NAME>EARTH</CENTER_NAME><REF_FRAME>TEME</REF_FRAME><TIME_SYSTEM>UTC</TIME_SYSTEM><MEAN_ELEMENT_THEORY>SGP4</MEAN_ELEMENT_THEORY></metadata><data><meanElements><EPOCH>2024-05-15T19:00:47.706048</EPOCH><MEAN_MOTION>13.15549777</MEAN_MOTION><ECCENTRICITY>.0002035</ECCENTRICITY><INCLINATION>87.9053</INCLINATION><RA_OF_ASC_NODE>50.9040</RA_OF_ASC_NODE><ARG_OF_PERICENTER>89.3502</ARG_OF_PERICENTER><MEAN_ANOMALY>270.7862</MEAN_ANOMALY></meanElements><tleParameters><EPHEMERIS_TYPE>0</EPHEMERIS_TYPE><CLASSIFICATION_TYPE>U</CLASSIFICATION_TYPE><NORAD_CAT_ID>44061</NORAD_CAT_ID><ELEMENT_SET_NO>999</ELEMENT_SET_NO><REV_AT_EPOCH>25118</REV_AT_EPOCH><BSTAR>-.14069E-3</BSTAR><MEAN_MOTION_DOT>-.4E-6</MEAN_MOTION_DOT><MEAN_MOTION_DDOT>0</MEAN_MOTION_DDOT></tleParameters></data></segment></body></omm>
<omm id="CCSDS_OMM_VERS" version="2.0">
<header><CREATION_DATE/><ORIGINATOR/></header><body><segment><metadata><OBJECT_NAME>ONEWEB-0011</OBJECT_NAME><OBJECT_ID>2019-010F</OBJECT_ID><CENTER_NAME>EARTH</CENTER_NAME><REF_FRAME>TEME</REF_FRAME><TIME_SYSTEM>UTC</TIME_SYSTEM><MEAN_ELEMENT_THEORY>SGP4</MEAN_ELEMENT_THEORY></metadata><data><meanElements><EPOCH>2024-05-15T18:17:26.342880</EPOCH><MEAN_MOTION>13.15548426</MEAN_MOTION><ECCENTRICITY>.000214</ECCENTRICITY><INCLINATION>87.9056</INCLINATION><RA_OF_ASC_NODE>50.9099</RA_OF_ASC_NODE><ARG_OF_PERICENTER>80.3945</ARG_OF_PERICENTER><MEAN_ANOMALY>279.7427</MEAN_ANOMALY></meanElements><tleParameters><EPHEMERIS_TYPE>0</EPHEMERIS_TYPE><CLASSIFICATION_TYPE>U</CLASSIFICATION_TYPE><NORAD_CAT_ID>44062</NORAD_CAT_ID><ELEMENT_SET_NO>999</ELEMENT_SET_NO><REV_AT_EPOCH>25117</REV_AT_EPOCH><BSTAR>.21919E-3</BSTAR><MEAN_MOTION_DOT>.95E-6</MEAN_MOTION_DOT><MEAN_MOTION_DDOT>0</MEAN_MOTION_DDOT></tleParameters></data></segment></body></omm>
<omm id="CCSDS_OMM_VERS" version="2.0">
<header><CREATION_DATE/><ORIGINATOR/></header><body><segment><metadata><OBJECT_NAME>ONEWEB-0013</OBJECT_NAME><OBJECT_ID>2020-008A</OBJECT_ID><CENTER_NAME>EARTH</CENTER_NAME><REF_FRAME>TEME</REF_FRAME><TIME_SYSTEM>UTC</TIME_SYSTEM><MEAN_ELEMENT_THEORY>SGP4</MEAN_ELEMENT_THEORY></metadata><data><meanElements><EPOCH>2024-05-15T17:18:46.034496</EPOCH><MEAN_MOTION>13.09376064</MEAN_MOTION><ECCENTRICITY>.0001496</ECCENTRICITY><INCLINATION>87.8657</INCLINATION><RA_OF_ASC_NODE>206.1309</RA_OF_ASC_NODE><ARG_OF_PERICENTER>125.3897</ARG_OF_PERICENTER><MEAN_ANOMALY>234.7369</MEAN_ANOMALY></meanElements><tleParameters><EPHEMERIS_TYPE>0</EPHEMERIS_TYPE><CLASSIFICATION_TYPE>U</CLASSIFICATION_TYPE><NORAD_CAT_ID>45131</NORAD_CAT_ID><ELEMENT_SET_NO>999</ELEMENT_SET_NO><REV_AT_EPOCH>20628</REV_AT_EPOCH><BSTAR>.21391E-2</BSTAR><MEAN_MOTION_DOT>.749E-5</MEAN_MOTION_DOT><MEAN_MOTION_DDOT>0</MEAN_MOTION_DDOT></tleParameters></data></segment></body></omm>
<omm id="CCSDS_OMM_VERS" version="2.0">
<header><CREATION_DATE/><ORIGINATOR/></header><body><segment><metadata><OBJECT_NAME>ONEWEB-0017</OBJECT_NAME><OBJECT_ID>2020-008B</OBJECT_ID><CENTER_NAME>EARTH</CENTER_NAME><REF_FRAME>TEME</REF_FRAME><TIME_SYSTEM>UTC</TIME_SYSTEM><MEAN_ELEMENT_THEORY>SGP4</MEAN_ELEMENT_THEORY></metadata><data><meanElements><EPOCH>2024-05-15T21:00:44.630784</EPOCH><MEAN_MOTION>13.10375594</MEAN_MOTION><ECCENTRICITY>.0002356</ECCENTRICITY><INCLINATION>87.8969</INCLINATION><RA_OF_ASC_NODE>187.8059</RA_OF_ASC_NODE><ARG_OF_PERICENTER>97.8094</ARG_OF_PERICENTER><MEAN_ANOMALY>262.3301</MEAN_ANOMALY></meanElements><tleParameters><EPHEMERIS_TYPE>0</EPHEMERIS_TYPE><CLASSIFICATION_TYPE>U</CLASSIFICATION_TYPE><NORAD_CAT_ID>45132</NORAD_CAT_ID><ELEMENT_SET_NO>999</ELEMENT_SET_NO><REV_AT_EPOCH>20811</REV_AT_EPOCH><BSTAR>-.85342E-3</BSTAR><MEAN_MOTION_DOT>-.285E-5</MEAN_MOTION_DOT><MEAN_MOTION_DDOT>0</MEAN_MOTION_DDOT></tleParameters></data></segment></body></omm>

</ndm>
